STARLINK-36768          
1 67803U 26032G   26054.66670139 -.01842250  93257-3 -57068-2 0  9993
2 67803  97.2857 240.4033 0001205  77.7149 235.0921 15.91790036  2525
STARLINK-36792          
1 67804U 26032H   26054.66670139 -.01836849  93050-3 -55972-2 0  9994
2 67804  97.2852 240.4057 0001197  75.9973 243.2666 15.92110114  2466
STARLINK-36782          
1 67805U 26032J   26054.66670139 -.01835825  93091-3 -55524-2 0  9996
2 67805  97.2851 240.4071 0001181  76.5124 245.7370 15.92255450  2529
STARLINK-36389          
1 67806U 26032K   26054.66670139 -.01833878  93107-3 -54867-2 0  9990
2 67806  97.2849 240.4088 0001187  73.5976 252.7363 15.92465752  2521
STARLINK-36382          
1 67807U 26032L   26054.66670139 -.01827810  92689-3 -54218-2 0  9994
2 67807  97.2846 240.4099 0001243  72.7678 256.9443 15.92631211  2467
STARLINK-36811          
1 67808U 26032M   26054.66670139 -.01825514  92670-3 -53568-2 0  9991
2 67808  97.2845 240.4123 0001184  69.8777 263.8734 15.92839669  2520
STARLINK-36795          
1 67809U 26032N   26054.66670139 -.01823019  92622-3 -52949-2 0  9999
2 67809  97.2845 240.4137 0001212  71.0674 266.5465 15.93036964  2528
STARLINK-36807          
1 67810U 26032P   26054.66670139 -.01817169  92216-3 -52351-2 0  9996
2 67810  97.2842 240.4149 0001158  74.4963 266.3184 15.93193148  2521
STARLINK-36733          
1 67811U 26032Q   26054.66670139 -.01810016  91741-3 -51570-2 0  9995
2 67811  97.2837 240.4164 0001243  66.1410 278.8461 15.93404989  2527
STARLINK-36377          
1 67812U 26032R   26054.66670139 -.01800357  91335-3 -49878-2 0  9990
2 67812  97.2833 240.4215 0001145  69.3142 286.2566 15.93939371  2526
STARLINK-36732          
1 67813U 26032S   26054.66670139 -.01801553  91294-3 -50338-2 0  9997
2 67813  97.2832 240.4191 0001123  69.8331 282.5083 15.93776998  2527
STARLINK-36767          
1 67814U 26032T   26054.66670139 -.01807313  91692-3 -50910-2 0  9996
2 67814  97.2833 240.4178 0001248  64.8477 284.3347 15.93622551  2526
